start=new Date('2022-12-03T00:00:00.000Z').valueOf();
sats=[{"BSTAR":"0.00002051600000","DECAY_DATE":null,"APOAPSIS":"541.936","LAUNCH_DATE":"2022-05-14","GP_ID":"219382494","EPOCH":"2022-12-02T19:18:35.673120","MEAN_MOTION_DDOT":"0.0000000000000","OBJECT_NAME":"STARLINK-4013","NORAD_CAT_ID":"52604","TIME_SYSTEM":"UTC","MEAN_ANOMALY":"323.3473","RCS_SIZE":"LARGE","SEMIMAJOR_AXIS":"6917.877","REF_FRAME":"TEME","CLASSIFICATION_TYPE":"U","ECCENTRICITY":"0.00031720","ELEMENT_SET_NO":"999","OBJECT_TYPE":"PAYLOAD","MEAN_MOTION":"15.08841090","INCLINATION":"53.2176","SITE":"AFETR","EPHEMERIS_TYPE":"0","PERIOD":"95.437","RA_OF_ASC_NODE":"234.1817","PERIAPSIS":"537.548","OBJECT_ID":"2022-052G","ARG_OF_PERICENTER":"36.7736","CENTER_NAME":"EARTH","COUNTRY_CODE":"US","FILE":"3679625","REV_AT_EPOCH":"3077","TLE_LINE2":"2 52604  53.2176 234.1817 0003172  36.7736 323.3473 15.08841090 30772","MEAN_MOTION_DOT":"0.00000038","MEAN_ELEMENT_THEORY":"SGP4","TLE_LINE1":"1 52604U 22052G   22336.80457955  .00000038  00000-0  20516-4 0  9996"},{"OBJECT_ID":"2022-052H","PERIAPSIS":"538.211","RA_OF_ASC_NODE":"239.6278","ARG_OF_PERICENTER":"35.1689","SITE":"AFETR","INCLINATION":"53.2172","EPHEMERIS_TYPE":"0","PERIOD":"95.438","FILE":"3679625","COUNTRY_CODE":"US","TLE_LINE1":"1 52605U 22052H   22336.70660430  .00000512  00000-0  50277-4 0  9994","REV_AT_EPOCH":"3068","TLE_LINE2":"2 52605  53.2172 239.6278 0002230  35.1689 324.9449 15.08837305 30688","MEAN_MOTION_DOT":"0.00000512","MEAN_ELEMENT_THEORY":"SGP4","CENTER_NAME":"EARTH","GP_ID":"219382744","EPOCH":"2022-12-02T16:57:30.611520","DECAY_DATE":null,"LAUNCH_DATE":"2022-05-14","APOAPSIS":"541.296","OBJECT_NAME":"STARLINK-4000","MEAN_MOTION_DDOT":"0.0000000000000","BSTAR":"0.00005027700000","REF_FRAME":"TEME","CLASSIFICATION_TYPE":"U","OBJECT_TYPE":"PAYLOAD","MEAN_MOTION":"15.08837305","ECCENTRICITY":"0.00022300","ELEMENT_SET_NO":"999","RCS_SIZE":"LARGE","MEAN_ANOMALY":"324.9449","NORAD_CAT_ID":"52605","TIME_SYSTEM":"UTC","SEMIMAJOR_AXIS":"6917.889"},{"SEMIMAJOR_AXIS":"6917.904","RCS_SIZE":"LARGE","MEAN_ANOMALY":"325.5793","NORAD_CAT_ID":"52606","TIME_SYSTEM":"UTC","MEAN_MOTION":"15.08832407","OBJECT_TYPE":"PAYLOAD","ECCENTRICITY":"0.00026070","ELEMENT_SET_NO":"999","REF_FRAME":"TEME","CLASSIFICATION_TYPE":"U","BSTAR":"-0.00003996900000","OBJECT_NAME":"STARLINK-3928","MEAN_MOTION_DDOT":"0.0000000000000","GP_ID":"219350882","EPOCH":"2022-12-02T03:19:26.738688","DECAY_DATE":null,"LAUNCH_DATE":"2022-05-14","APOAPSIS":"541.572","CENTER_NAME":"EARTH","TLE_LINE1":"1 52606U 22052J   22336.13850392 -.00000924  00000-0 -39969-4 0  9994","TLE_LINE2":"2 52606  53.2183 237.1781 0002607  34.5368 325.5793 15.08832407 30674","MEAN_MOTION_DOT":"-0.00000924","REV_AT_EPOCH":"3067","MEAN_ELEMENT_THEORY":"SGP4","FILE":"3679245","COUNTRY_CODE":"US","EPHEMERIS_TYPE":"0","PERIOD":"95.438","INCLINATION":"53.2183","SITE":"AFETR","ARG_OF_PERICENTER":"34.5368","OBJECT_ID":"2022-052J","PERIAPSIS":"537.965","RA_OF_ASC_NODE":"237.1781"},{"APOAPSIS":"541.545","LAUNCH_DATE":"2022-05-14","DECAY_DATE":null,"EPOCH":"2022-12-02T10:25:22.344096","GP_ID":"219351132","MEAN_MOTION_DDOT":"0.0000000000000","OBJECT_NAME":"STARLINK-3947","BSTAR":"0.00014032000000","REF_FRAME":"TEME","CLASSIFICATION_TYPE":"U","ELEMENT_SET_NO":"999","ECCENTRICITY":"0.00025880","MEAN_MOTION":"15.08837016","OBJECT_TYPE":"PAYLOAD","TIME_SYSTEM":"UTC","NORAD_CAT_ID":"52607","MEAN_ANOMALY":"316.9159","RCS_SIZE":"LARGE","SEMIMAJOR_AXIS":"6917.890","RA_OF_ASC_NODE":"240.8481","OBJECT_ID":"2022-052K","PERIAPSIS":"537.964","ARG_OF_PERICENTER":"43.2036","INCLINATION":"53.2184","SITE":"AFETR","PERIOD":"95.438","EPHEMERIS_TYPE":"0","COUNTRY_CODE":"US","FILE":"3679245","MEAN_ELEMENT_THEORY":"SGP4","MEAN_MOTION_DOT":"0.00001945","TLE_LINE2":"2 52607  53.2184 240.8481 0002588  43.2036 316.9159 15.08837016 30638","REV_AT_EPOCH":"3063","TLE_LINE1":"1 52607U 22052K   22336.43428639  .00001945  00000-0  14032-3 0  9998","CENTER_NAME":"EARTH"},{"BSTAR":"0.00004595100000","MEAN_MOTION_DDOT":"0.0000000000000","OBJECT_NAME":"STARLINK-3979","EPOCH":"2022-12-02T17:27:18.625824","GP_ID":"219381994","APOAPSIS":"541.817","LAUNCH_DATE":"2022-05-14","DECAY_DATE":null,"SEMIMAJOR_AXIS":"6917.865","RCS_SIZE":"LARGE","MEAN_ANOMALY":"326.4980","TIME_SYSTEM":"UTC","NORAD_CAT_ID":"52608","MEAN_MOTION":"15.08845041","OBJECT_TYPE":"PAYLOAD","ELEMENT_SET_NO":"999","ECCENTRICITY":"0.00030170","REF_FRAME":"TEME","CLASSIFICATION_TYPE":"U","PERIOD":"95.437","EPHEMERIS_TYPE":"0","SITE":"AFETR","INCLINATION":"53.2182","ARG_OF_PERICENTER":"33.6203","PERIAPSIS":"537.643","OBJECT_ID":"2022-052L","RA_OF_ASC_NODE":"234.5371","CENTER_NAME":"EARTH","TLE_LINE1":"1 52608U 22052L   22336.72729891  .00000443  00000-0  45951-4 0  9992","MEAN_ELEMENT_THEORY":"SGP4","TLE_LINE2":"2 52608  53.2182 234.5371 0003017  33.6203 326.4980 15.08845041 30761","REV_AT_EPOCH":"3076","MEAN_MOTION_DOT":"0.00000443","FILE":"3679625","COUNTRY_CODE":"US"},{"EPOCH":"2022-12-02T18:53:29.061888","GP_ID":"219382244","APOAPSIS":"541.950","LAUNCH_DATE":"2022-05-14","DECAY_DATE":null,"MEAN_MOTION_DDOT":"0.0000000000000","OBJECT_NAME":"STARLINK-3997","BSTAR":"0.00020729000000","CLASSIFICATION_TYPE":"U","REF_FRAME":"TEME","OBJECT_TYPE":"PAYLOAD","MEAN_MOTION":"15.08848287","ELEMENT_SET_NO":"999","ECCENTRICITY":"0.00032230","RCS_SIZE":"LARGE","MEAN_ANOMALY":"329.1826","TIME_SYSTEM":"UTC","NORAD_CAT_ID":"52609","SEMIMAJOR_AXIS":"6917.855","PERIAPSIS":"537.490","OBJECT_ID":"2022-052M","RA_OF_ASC_NODE":"234.2796","ARG_OF_PERICENTER":"30.9356","INCLINATION":"53.2154","SITE":"AFETR","PERIOD":"95.437","EPHEMERIS_TYPE":"0","FILE":"3679625","COUNTRY_CODE":"US","TLE_LINE1":"1 52609U 22052M   22336.78714192  .00003013  00000-0  20729-3 0  9998","MEAN_ELEMENT_THEORY":"SGP4","TLE_LINE2":"2 52609  53.2154 234.2796 0003223  30.9356 329.1826 15.08848287 30772","MEAN_MOTION_DOT":"0.00003013","REV_AT_EPOCH":"3077","CENTER_NAME":"EARTH"},{"CENTER_NAME":"EARTH","COUNTRY_CODE":"US","FILE":"3679625","MEAN_ELEMENT_THEORY":"SGP4","TLE_LINE2":"2 52610  53.2172 239.0502 0003591  28.1162 332.0023 15.08835278 30705","MEAN_MOTION_DOT":"-0.00000173","REV_AT_EPOCH":"3070","TLE_LINE1":"1 52610U 22052N   22336.83540134 -.00000173  00000-0  73076-5 0  9999","INCLINATION":"53.2172","SITE":"AFETR","PERIOD":"95.438","EPHEMERIS_TYPE":"0","RA_OF_ASC_NODE":"239.0502","PERIAPSIS":"537.276","OBJECT_ID":"2022-052N","ARG_OF_PERICENTER":"28.1162","TIME_SYSTEM":"UTC","NORAD_CAT_ID":"52610","MEAN_ANOMALY":"332.0023","RCS_SIZE":"LARGE","SEMIMAJOR_AXIS":"6917.895","REF_FRAME":"TEME","CLASSIFICATION_TYPE":"U","ELEMENT_SET_NO":"999","ECCENTRICITY":"0.00035910","OBJECT_TYPE":"PAYLOAD","MEAN_MOTION":"15.08835278","BSTAR":"0.00000730760000","APOAPSIS":"542.244","LAUNCH_DATE":"2022-05-14","DECAY_DATE":null,"EPOCH":"2022-12-02T20:02:58.675776","GP_ID":"219382996","OBJECT_NAME":"STARLINK-3998","MEAN_MOTION_DDOT":"0.0000000000000"},{"CENTER_NAME":"EARTH","MEAN_ELEMENT_THEORY":"SGP4","MEAN_MOTION_DOT":"0.00000676","TLE_LINE2":"2 52611  53.2196 240.8692 0002781  35.2257 324.8918 15.08839996 30642","REV_AT_EPOCH":"3064","TLE_LINE1":"1 52611U 22052P   22336.43060080  .00000676  00000-0  60589-4 0  9994","COUNTRY_CODE":"US","FILE":"3679245","PERIOD":"95.438","EPHEMERIS_TYPE":"0","INCLINATION":"53.2196","SITE":"AFETR","ARG_OF_PERICENTER":"35.2257","RA_OF_ASC_NODE":"240.8692","PERIAPSIS":"537.822","OBJECT_ID":"2022-052P","SEMIMAJOR_AXIS":"6917.880","TIME_SYSTEM":"UTC","NORAD_CAT_ID":"52611","MEAN_ANOMALY":"324.8918","RCS_SIZE":"LARGE","ECCENTRICITY":"0.00027810","ELEMENT_SET_NO":"999","OBJECT_TYPE":"PAYLOAD","MEAN_MOTION":"15.08839996","REF_FRAME":"TEME","CLASSIFICATION_TYPE":"U","BSTAR":"0.00006058900000","MEAN_MOTION_DDOT":"0.0000000000000","OBJECT_NAME":"STARLINK-3980","APOAPSIS":"541.669","LAUNCH_DATE":"2022-05-14","DECAY_DATE":null,"EPOCH":"2022-12-02T10:20:03.909120","GP_ID":"219350632"},{"RA_OF_ASC_NODE":"235.7543","PERIAPSIS":"537.803","OBJECT_ID":"2022-052Q","ARG_OF_PERICENTER":"28.5304","INCLINATION":"53.2179","SITE":"AFETR","PERIOD":"95.437","EPHEMERIS_TYPE":"0","COUNTRY_CODE":"US","FILE":"3679250","MEAN_ELEMENT_THEORY":"SGP4","REV_AT_EPOCH":"3109","TLE_LINE2":"2 52612  53.2179 235.7543 0002794  28.5304 331.5840 15.08843197 31091","MEAN_MOTION_DOT":"0.00000382","TLE_LINE1":"1 52612U 22052Q   22336.45865514  .00000382  00000-0  42148-4 0  9997","CENTER_NAME":"EARTH","APOAPSIS":"541.668","LAUNCH_DATE":"2022-05-14","DECAY_DATE":null,"EPOCH":"2022-12-02T11:00:27.804096","GP_ID":"219353960","MEAN_MOTION_DDOT":"0.0000000000000","OBJECT_NAME":"STARLINK-4002","BSTAR":"0.00004214800000","CLASSIFICATION_TYPE":"U","REF_FRAME":"TEME","ELEMENT_SET_NO":"999","ECCENTRICITY":"0.00027940","OBJECT_TYPE":"PAYLOAD","MEAN_MOTION":"15.08843197","TIME_SYSTEM":"UTC","NORAD_CAT_ID":"52612","RCS_SIZE":"LARGE","MEAN_ANOMALY":"331.5840","SEMIMAJOR_AXIS":"6917.871"},{"MEAN_MOTION_DDOT":"0.0000000000000","OBJECT_NAME":"STARLINK-3921","EPOCH":"2022-12-02T02:38:22.512192","GP_ID":"219351632","APOAPSIS":"541.172","LAUNCH_DATE":"2022-05-14","DECAY_DATE":null,"BSTAR":"0.00012354000000","MEAN_MOTION":"15.08841835","OBJECT_TYPE":"PAYLOAD","ECCENTRICITY":"0.00020710","ELEMENT_SET_NO":"999","CLASSIFICATION_TYPE":"U","REF_FRAME":"TEME","SEMIMAJOR_AXIS":"6917.875","MEAN_ANOMALY":"299.4347","RCS_SIZE":"LARGE","TIME_SYSTEM":"UTC","NORAD_CAT_ID":"52613","ARG_OF_PERICENTER":"60.6852","OBJECT_ID":"2022-052R","PERIAPSIS":"538.307","RA_OF_ASC_NODE":"227.2985","PERIOD":"95.437","EPHEMERIS_TYPE":"0","SITE":"AFETR","INCLINATION":"53.2167","TLE_LINE1":"1 52613U 22052R   22336.10998278  .00001679  00000-0  12354-3 0  9999","MEAN_ELEMENT_THEORY":"SGP4","TLE_LINE2":"2 52613  53.2167 227.2985 0002071  60.6852 299.4347 15.08841835 30807","REV_AT_EPOCH":"3080","MEAN_MOTION_DOT":"0.00001679","FILE":"3679245","COUNTRY_CODE":"US","CENTER_NAME":"EARTH"}];
